KUIPER-00027            
1 63740U 25088S   26063.46057399  .00008004  00000+0  10778-2 0  9999
2 63740  51.9010 118.7083 0000791  84.5147 275.5906 14.79927511 46844
KUIPER-00028            
1 63741U 25088T   26063.36192456  .00003680  00000+0  51058-3 0  9995
2 63741  51.8989 116.6123 0000624  77.0276 283.0756 14.80003574 47277
KUIPER-00029            
1 63742U 25088U   26063.44332871  .00007854  00000+0  96965-3 0  9995
2 63742  51.9007 113.9122 0000704  99.8509 260.2535 14.83608419 46845
KUIPER-00030            
1 63743U 25088V   26063.57949167 -.00001464  00000+0 -16255-3 0  9999
2 63743  51.9000 133.1429 0010913  52.8570 307.3388 14.79931199 46874
KUIPER-00031            
1 63744U 25088W   26063.51778986  .00007427  00000+0  91847-3 0  9996
2 63744  51.8993 118.6945 0002182 127.3613 232.7550 14.83605758 46787
KUIPER-00032            
1 63745U 25088X   26063.33744210  .00024737  00000+0  67870-3 0  9992
2 63745  51.8699  50.1004 0005313  92.7924 267.3671 15.37109379 48728
KUIPER-00033            
1 63746U 25088Y   26063.43425766  .00009242  00000+0  11416-2 0  9994
2 63746  51.9006 149.2249 0000831  43.8687 316.2343 14.83400226 46831
KUIPER-00034            
1 63747U 25088Z   26063.32220489  .00007615  00000+0  94221-3 0  9996
2 63747  51.9020 112.0630 0001769 338.1324  21.9564 14.83554949 47028
KUIPER-00035            
1 63748U 25088AA  26063.58335648  .00027459  00000+0  33424-2 0  9994
2 63748  51.8991 136.5689 0003983  58.5899  53.6496 14.83224757  3029
KUIPER-00037            
1 63749U 25088AB  26063.50927822  .00018913  00000+0  25043-2 0  9991
2 63749  51.8999 135.9690 0000908  54.6935 305.4112 14.79910111 47544
KUIPER-00038            
1 63750U 25088AC  26063.45792776  .00004434  00000+0  61021-3 0  9995
2 63750  51.9021 121.2260 0000675  85.8482 274.2557 14.79937295 46747
KUIPER-00039            
1 64500U 25134A   26063.56566272  .00004464  00000+0  61426-3 0  9995
2 64500  51.8998 255.7509 0001031  64.3313 295.7756 14.79928998 39318
KUIPER-00040            
1 64501U 25134B   26063.55309317  .00010204  00000+0  13626-2 0  9997
2 64501  51.8999 266.9470 0013084 247.5288 112.4289 14.79975160 39159
KUIPER-00041            
1 64502U 25134C   26063.55774350  .00004422  00000+0  62633-3 0  9999
2 64502  51.8986 268.3368 0007155 248.4949 111.5251 14.78704906 39138
KUIPER-00042            
1 64503U 25134D   26062.81296569  .00004678  00000+0  64321-3 0  9998
2 64503  51.8987 267.5802 0007322 260.6370  99.3764 14.79864023 39088
KUIPER-00043            
1 64504U 25134E   26063.54439629  .00005522  00000+0  68702-3 0  9992
2 64504  51.9002 255.9107 0000917 309.3130  50.7753 14.83793091 39311
