[{"OBJECT_NAME":"KUIPER-00027","OBJECT_ID":"2025-088S","EPOCH":"2026-03-04T11:03:13.592736","MEAN_MOTION":14.79927511,"ECCENTRICITY":7.912e-5,"INCLINATION":51.901,"RA_OF_ASC_NODE":118.7083,"ARG_OF_PERICENTER":84.5147,"MEAN_ANOMALY":275.5906,"EPHEMERIS_TYPE":0,"CLASSIFICATION_TYPE":"U","NORAD_CAT_ID":63740,"ELEMENT_SET_NO":999,"REV_AT_EPOCH":4684,"BSTAR":0.0010777533,"MEAN_MOTION_DOT":8.004e-5,"MEAN_MOTION_DDOT":0},{"OBJECT_NAME":"KUIPER-00028","OBJECT_ID":"2025-088T","EPOCH":"2026-03-04T08:41:10.281984","MEAN_MOTION":14.80003574,"ECCENTRICITY":6.242e-5,"INCLINATION":51.8989,"RA_OF_ASC_NODE":116.6123,"ARG_OF_PERICENTER":77.0276,"MEAN_ANOMALY":283.0756,"EPHEMERIS_TYPE":0,"CLASSIFICATION_TYPE":"U","NORAD_CAT_ID":63741,"ELEMENT_SET_NO":999,"REV_AT_EPOCH":4727,"BSTAR":0.00051058241,"MEAN_MOTION_DOT":3.68e-5,"MEAN_MOTION_DDOT":0},{"OBJECT_NAME":"KUIPER-00029","OBJECT_ID":"2025-088U","EPOCH":"2026-03-04T10:38:23.600544","MEAN_MOTION":14.83608419,"ECCENTRICITY":7.046e-5,"INCLINATION":51.9007,"RA_OF_ASC_NODE":113.9122,"ARG_OF_PERICENTER":99.8509,"MEAN_ANOMALY":260.2535,"EPHEMERIS_TYPE":0,"CLASSIFICATION_TYPE":"U","NORAD_CAT_ID":63742,"ELEMENT_SET_NO":999,"REV_AT_EPOCH":4684,"BSTAR":0.00096964642,"MEAN_MOTION_DOT":7.854e-5,"MEAN_MOTION_DDOT":0},{"OBJECT_NAME":"KUIPER-00030","OBJECT_ID":"2025-088V","EPOCH":"2026-03-04T13:54:28.080288","MEAN_MOTION":14.79931199,"ECCENTRICITY":0.00109131,"INCLINATION":51.9,"RA_OF_ASC_NODE":133.1429,"ARG_OF_PERICENTER":52.857,"MEAN_ANOMALY":307.3388,"EPHEMERIS_TYPE":0,"CLASSIFICATION_TYPE":"U","NORAD_CAT_ID":63743,"ELEMENT_SET_NO":999,"REV_AT_EPOCH":4687,"BSTAR":-0.00016255216,"MEAN_MOTION_DOT":-1.464e-5,"MEAN_MOTION_DDOT":0},{"OBJECT_NAME":"KUIPER-00031","OBJECT_ID":"2025-088W","EPOCH":"2026-03-04T12:25:37.043904","MEAN_MOTION":14.83605758,"ECCENTRICITY":0.00021821,"INCLINATION":51.8993,"RA_OF_ASC_NODE":118.6945,"ARG_OF_PERICENTER":127.3613,"MEAN_ANOMALY":232.755,"EPHEMERIS_TYPE":0,"CLASSIFICATION_TYPE":"U","NORAD_CAT_ID":63744,"ELEMENT_SET_NO":999,"REV_AT_EPOCH":4678,"BSTAR":0.00091846859,"MEAN_MOTION_DOT":7.427e-5,"MEAN_MOTION_DDOT":0},{"OBJECT_NAME":"KUIPER-00032","OBJECT_ID":"2025-088X","EPOCH":"2026-03-04T08:05:54.997440","MEAN_MOTION":15.37109379,"ECCENTRICITY":0.00053132,"INCLINATION":51.8699,"RA_OF_ASC_NODE":50.1004,"ARG_OF_PERICENTER":92.7924,"MEAN_ANOMALY":267.3671,"EPHEMERIS_TYPE":0,"CLASSIFICATION_TYPE":"U","NORAD_CAT_ID":63745,"ELEMENT_SET_NO":999,"REV_AT_EPOCH":4872,"BSTAR":0.00067869666,"MEAN_MOTION_DOT":0.00024737,"MEAN_MOTION_DDOT":0},{"OBJECT_NAME":"KUIPER-00033","OBJECT_ID":"2025-088Y","EPOCH":"2026-03-04T10:25:19.861824","MEAN_MOTION":14.83400226,"ECCENTRICITY":8.311e-5,"INCLINATION":51.9006,"RA_OF_ASC_NODE":149.2249,"ARG_OF_PERICENTER":43.8687,"MEAN_ANOMALY":316.2343,"EPHEMERIS_TYPE":0,"CLASSIFICATION_TYPE":"U","NORAD_CAT_ID":63746,"ELEMENT_SET_NO":999,"REV_AT_EPOCH":4683,"BSTAR":0.0011415878,"MEAN_MOTION_DOT":9.242e-5,"MEAN_MOTION_DDOT":0},{"OBJECT_NAME":"KUIPER-00034","OBJECT_ID":"2025-088Z","EPOCH":"2026-03-04T07:43:58.502496","MEAN_MOTION":14.83554949,"ECCENTRICITY":0.00017698,"INCLINATION":51.902,"RA_OF_ASC_NODE":112.063,"ARG_OF_PERICENTER":338.1324,"MEAN_ANOMALY":21.9564,"EPHEMERIS_TYPE":0,"CLASSIFICATION_TYPE":"U","NORAD_CAT_ID":63747,"ELEMENT_SET_NO":999,"REV_AT_EPOCH":4702,"BSTAR":0.00094221309,"MEAN_MOTION_DOT":7.615e-5,"MEAN_MOTION_DDOT":0},{"OBJECT_NAME":"KUIPER-00035","OBJECT_ID":"2025-088AA","EPOCH":"2026-03-04T14:00:01.999872","MEAN_MOTION":14.83224757,"ECCENTRICITY":0.00039836,"INCLINATION":51.8991,"RA_OF_ASC_NODE":136.5689,"ARG_OF_PERICENTER":58.5899,"MEAN_ANOMALY":53.6496,"EPHEMERIS_TYPE":0,"CLASSIFICATION_TYPE":"U","NORAD_CAT_ID":63748,"ELEMENT_SET_NO":999,"REV_AT_EPOCH":302,"BSTAR":0.0033423815,"MEAN_MOTION_DOT":0.00027459,"MEAN_MOTION_DDOT":0},{"OBJECT_NAME":"KUIPER-00037","OBJECT_ID":"2025-088AB","EPOCH":"2026-03-04T12:13:21.638208","MEAN_MOTION":14.79910111,"ECCENTRICITY":9.082e-5,"INCLINATION":51.8999,"RA_OF_ASC_NODE":135.969,"ARG_OF_PERICENTER":54.6935,"MEAN_ANOMALY":305.4112,"EPHEMERIS_TYPE":0,"CLASSIFICATION_TYPE":"U","NORAD_CAT_ID":63749,"ELEMENT_SET_NO":999,"REV_AT_EPOCH":4754,"BSTAR":0.002504283,"MEAN_MOTION_DOT":0.00018913,"MEAN_MOTION_DDOT":0},{"OBJECT_NAME":"KUIPER-00038","OBJECT_ID":"2025-088AC","EPOCH":"2026-03-04T10:59:24.958464","MEAN_MOTION":14.79937295,"ECCENTRICITY":6.758e-5,"INCLINATION":51.9021,"RA_OF_ASC_NODE":121.226,"ARG_OF_PERICENTER":85.8482,"MEAN_ANOMALY":274.2557,"EPHEMERIS_TYPE":0,"CLASSIFICATION_TYPE":"U","NORAD_CAT_ID":63750,"ELEMENT_SET_NO":999,"REV_AT_EPOCH":4674,"BSTAR":0.00061020649,"MEAN_MOTION_DOT":4.434e-5,"MEAN_MOTION_DDOT":0},{"OBJECT_NAME":"KUIPER-00039","OBJECT_ID":"2025-134A","EPOCH":"2026-03-04T13:34:33.259008","MEAN_MOTION":14.79928998,"ECCENTRICITY":0.00010316,"INCLINATION":51.8998,"RA_OF_ASC_NODE":255.7509,"ARG_OF_PERICENTER":64.3313,"MEAN_ANOMALY":295.7756,"EPHEMERIS_TYPE":0,"CLASSIFICATION_TYPE":"U","NORAD_CAT_ID":64500,"ELEMENT_SET_NO":999,"REV_AT_EPOCH":3931,"BSTAR":0.00061426391,"MEAN_MOTION_DOT":4.464e-5,"MEAN_MOTION_DDOT":0},{"OBJECT_NAME":"KUIPER-00040","OBJECT_ID":"2025-134B","EPOCH":"2026-03-04T13:16:27.249888","MEAN_MOTION":14.7997516,"ECCENTRICITY":0.00130846,"INCLINATION":51.8999,"RA_OF_ASC_NODE":266.947,"ARG_OF_PERICENTER":247.5288,"MEAN_ANOMALY":112.4289,"EPHEMERIS_TYPE":0,"CLASSIFICATION_TYPE":"U","NORAD_CAT_ID":64501,"ELEMENT_SET_NO":999,"REV_AT_EPOCH":3915,"BSTAR":0.0013625954,"MEAN_MOTION_DOT":0.00010204,"MEAN_MOTION_DDOT":0},{"OBJECT_NAME":"KUIPER-00041","OBJECT_ID":"2025-134C","EPOCH":"2026-03-04T13:23:09.038400","MEAN_MOTION":14.78704906,"ECCENTRICITY":0.00071552,"INCLINATION":51.8986,"RA_OF_ASC_NODE":268.3368,"ARG_OF_PERICENTER":248.4949,"MEAN_ANOMALY":111.5251,"EPHEMERIS_TYPE":0,"CLASSIFICATION_TYPE":"U","NORAD_CAT_ID":64502,"ELEMENT_SET_NO":999,"REV_AT_EPOCH":3913,"BSTAR":0.00062632911,"MEAN_MOTION_DOT":4.422e-5,"MEAN_MOTION_DDOT":0},{"OBJECT_NAME":"KUIPER-00042","OBJECT_ID":"2025-134D","EPOCH":"2026-03-03T19:30:40.235616","MEAN_MOTION":14.79864023,"ECCENTRICITY":0.0007322,"INCLINATION":51.8987,"RA_OF_ASC_NODE":267.5802,"ARG_OF_PERICENTER":260.637,"MEAN_ANOMALY":99.3764,"EPHEMERIS_TYPE":0,"CLASSIFICATION_TYPE":"U","NORAD_CAT_ID":64503,"ELEMENT_SET_NO":999,"REV_AT_EPOCH":3908,"BSTAR":0.00064321,"MEAN_MOTION_DOT":4.678e-5,"MEAN_MOTION_DDOT":0},{"OBJECT_NAME":"KUIPER-00043","OBJECT_ID":"2025-134E","EPOCH":"2026-03-04T13:03:55.839456","MEAN_MOTION":14.83793091,"ECCENTRICITY":9.174e-5,"INCLINATION":51.9002,"RA_OF_ASC_NODE":255.9107,"ARG_OF_PERICENTER":309.313,"MEAN_ANOMALY":50.7753,"EPHEMERIS_TYPE":0,"CLASSIFICATION_TYPE":"U","NORAD_CAT_ID":64504,"ELEMENT_SET_NO":999,"REV_AT_EPOCH":3931,"BSTAR":0.00068701758,"MEAN_MOTION_DOT":5.522e-5,"MEAN_MOTION_DDOT":0}]
